{"type": "FeatureCollection", "features": [ {"type": "Feature", "properties": {"norad_id": 44622, "name": "GAOFEN-10R", "group": "resource", "lat": -81.65113172336878, "lon": 31.832055223665613, "alt_km": 633.324456621317, "timestamp": "2025-12-04T09:47:37.180455+00:00", "meta": {"OBJECT_NAME": "GAOFEN-10R", "OBJECT_ID": "2019-066A", "EPOCH": "2025-12-04T03:43:52.398912", "MEAN_MOTION": 14.82744697, "ECCENTRICITY": 0.0008241, "INCLINATION": 98.0264, "RA_OF_ASC_NODE": 285.629, "ARG_OF_PERICENTER": 65.4131, "MEAN_ANOMALY": 294.794, "EPHEMERIS_TYPE": 0, "CLASSIFICATION_TYPE": "U", "NORAD_CAT_ID": 44622, "ELEMENT_SET_NO": 999, "REV_AT_EPOCH": 33347, "BSTAR": 0.00048347, "MEAN_MOTION_DOT": 3.853e-05, "MEAN_MOTION_DDOT": 0}, "tle": {"line1": "1 44622U 19066A   25338.15546758  .00003853  00000+0  48347-3 0  9999", "line2": "2 44622  98.0264 285.6290 0008241  65.4131 294.7940 14.82744697333473"}}, "geometry": {"type": "Point", "coordinates": [31.832055223665613, -81.65113172336878]}}, {"type": "Feature", "properties": {"norad_id": 44804, "name": "CARTOSAT-3", "group": "resource", "lat": 56.78822751361686, "lon": 26.55044810115571, "alt_km": 497.3094259290474, "timestamp": "2025-12-04T09:47:37.180465+00:00", "meta": {"OBJECT_NAME": "CARTOSAT-3", "OBJECT_ID": "2019-081A", "EPOCH": "2025-12-04T04:47:56.862816", "MEAN_MOTION": 15.19250098, "ECCENTRICITY": 0.0013858, "INCLINATION": 97.4602, "RA_OF_ASC_NODE": 37.891, "ARG_OF_PERICENTER": 114.074, "MEAN_ANOMALY": 246.1946, "EPHEMERIS_TYPE": 0, "CLASSIFICATION_TYPE": "U", "NORAD_CAT_ID": 44804, "ELEMENT_SET_NO": 999, "REV_AT_EPOCH": 33386, "BSTAR": 0.00031956, "MEAN_MOTION_DOT": 6.684e-05, "MEAN_MOTION_DDOT": 0}, "tle": {"line1": "1 44804U 19081A   25338.19996369  .00006684  00000+0  31956-3 0  9992", "line2": "2 44804  97.4602  37.8910 0013858 114.0740 246.1946 15.19250098333865"}}, "geometry": {"type": "Point", "coordinates": [26.55044810115571, 56.78822751361686]}}, {"type": "Feature", "properties": {"norad_id": 44819, "name": "GAOFEN-12 01", "group": "resource", "lat": -57.61331594811804, "lon": 152.40623774781156, "alt_km": 633.8917585493182, "timestamp": "2025-12-04T09:47:37.180475+00:00", "meta": {"OBJECT_NAME": "GAOFEN-12 01", "OBJECT_ID": "2019-082A", "EPOCH": "2025-12-04T03:51:15.471936", "MEAN_MOTION": 14.80642018, "ECCENTRICITY": 0.0001246, "INCLINATION": 97.8128, "RA_OF_ASC_NODE": 344.6668, "ARG_OF_PERICENTER": 293.2933, "MEAN_ANOMALY": 66.8148, "EPHEMERIS_TYPE": 0, "CLASSIFICATION_TYPE": "U", "NORAD_CAT_ID": 44819, "ELEMENT_SET_NO": 999, "REV_AT_EPOCH": 32523, "BSTAR": 0.00013991, "MEAN_MOTION_DOT": 1.024e-05, "MEAN_MOTION_DDOT": 0}, "tle": {"line1": "1 44819U 19082A   25338.16059574  .00001024  00000+0  13991-3 0  9996", "line2": "2 44819  97.8128 344.6668 0001246 293.2933  66.8148 14.80642018325236"}}, "geometry": {"type": "Point", "coordinates": [152.40623774781156, -57.61331594811804]}}, {"type": "Feature", "properties": {"norad_id": 44873, "name": "CSG-1", "group": "resource", "lat": -55.07852567250937, "lon": 171.3003979065278, "alt_km": 630.4208965890612, "timestamp": "2025-12-04T09:47:37.180485+00:00", "meta": {"OBJECT_NAME": "CSG-1", "OBJECT_ID": "2019-092A", "EPOCH": "2025-12-04T03:33:51.499872", "MEAN_MOTION": 14.82145275, "ECCENTRICITY": 0.0001474, "INCLINATION": 97.8806, "RA_OF_ASC_NODE": 159.602, "ARG_OF_PERICENTER": 86.8934, "MEAN_ANOMALY": 273.2448, "EPHEMERIS_TYPE": 0, "CLASSIFICATION_TYPE": "U", "NORAD_CAT_ID": 44873, "ELEMENT_SET_NO": 999, "REV_AT_EPOCH": 32258, "BSTAR": 0.00014219, "MEAN_MOTION_DOT": 1.08e-05, "MEAN_MOTION_DDOT": 0}, "tle": {"line1": "1 44873U 19092A   25338.14851273  .00001080  00000+0  14219-3 0  9997", "line2": "2 44873  97.8806 159.6020 0001474  86.8934 273.2448 14.82145275322582"}}, "geometry": {"type": "Point", "coordinates": [171.3003979065278, -55.07852567250937]}}, {"type": "Feature", "properties": {"norad_id": 46277, "name": "NEMO-HD", "group": "resource", "lat": 14.639759281248079, "lon": -140.4875239336154, "alt_km": 447.1740102163676, "timestamp": "2025-12-04T09:47:37.180495+00:00", "meta": {"OBJECT_NAME": "NEMO-HD", "OBJECT_ID": "2020-061F", "EPOCH": "2025-12-04T04:24:03.528288", "MEAN_MOTION": 15.40059098, "ECCENTRICITY": 0.0002328, "INCLINATION": 97.223, "RA_OF_ASC_NODE": 37.3921, "ARG_OF_PERICENTER": 67.2082, "MEAN_ANOMALY": 292.941, "EPHEMERIS_TYPE": 0, "CLASSIFICATION_TYPE": "U", "NORAD_CAT_ID": 46277, "ELEMENT_SET_NO": 999, "REV_AT_EPOCH": 29192, "BSTAR": 0.00053824, "MEAN_MOTION_DOT": 0.00021469, "MEAN_MOTION_DDOT": 0}, "tle": {"line1": "1 46277U 20061F   25338.18337417  .00021469  00000+0  53824-3 0  9996", "line2": "2 46277  97.2230  37.3921 0002328  67.2082 292.9410 15.40059098291927"}}, "geometry": {"type": "Point", "coordinates": [-140.4875239336154, 14.639759281248079]}}, {"type": "Feature", "properties": {"norad_id": 46984, "name": "SENTINEL-6A", "group": "resource", "lat": -20.619180473486434, "lon": 9.244704377825244, "alt_km": 1339.5250380951684, "timestamp": "2025-12-04T09:47:37.180506+00:00", "meta": {"OBJECT_NAME": "SENTINEL-6A", "OBJECT_ID": "2020-086A", "EPOCH": "2025-12-03T21:29:45.509568", "MEAN_MOTION": 12.80930156, "ECCENTRICITY": 0.00077375, "INCLINATION": 66.039, "RA_OF_ASC_NODE": 180.6775, "ARG_OF_PERICENTER": 269.1609, "MEAN_ANOMALY": 90.852, "EPHEMERIS_TYPE": 0, "CLASSIFICATION_TYPE": "U", "NORAD_CAT_ID": 46984, "ELEMENT_SET_NO": 999, "REV_AT_EPOCH": 23531, "BSTAR": 0.00017950517, "MEAN_MOTION_DOT": -2e-07, "MEAN_MOTION_DDOT": 0}, "tle": {"line1": "1 46984U 20086A   25337.89566562 -.00000020  00000+0  17951-3 0  9992", "line2": "2 46984  66.0390 180.6775 0007737 269.1609  90.8520 12.80930156235311"}}, "geometry": {"type": "Point", "coordinates": [9.244704377825244, -20.619180473486434]}}, {"type": "Feature", "properties": {"norad_id": 48079, "name": "GAOFEN-12 02", "group": "resource", "lat": -67.71782755237085, "lon": 132.42242740866507, "alt_km": 636.0388028585285, "timestamp": "2025-12-04T09:47:37.180516+00:00", "meta": {"OBJECT_NAME": "GAOFEN-12 02", "OBJECT_ID": "2021-026A", "EPOCH": "2025-12-03T22:56:27.538656", "MEAN_MOTION": 14.80658357, "ECCENTRICITY": 0.00032798, "INCLINATION": 97.9849, "RA_OF_ASC_NODE": 332.0049, "ARG_OF_PERICENTER": 118.5702, "MEAN_ANOMALY": 241.5841, "EPHEMERIS_TYPE": 0, "CLASSIFICATION_TYPE": "U", "NORAD_CAT_ID": 48079, "ELEMENT_SET_NO": 999, "REV_AT_EPOCH": 25287, "BSTAR": 0.00012805909, "MEAN_MOTION_DOT": 9.31e-06, "MEAN_MOTION_DDOT": 0}, "tle": {"line1": "1 48079U 21026A   25337.95587429  .00000931  00000+0  12806-3 0  9990", "line2": "2 48079  97.9849 332.0049 0003279 118.5702 241.5841 14.80658357252878"}}, "geometry": {"type": "Point", "coordinates": [132.42242740866507, -67.71782755237085]}}, {"type": "Feature", "properties": {"norad_id": 48268, "name": "PLEIADES NEO 3", "group": "resource", "lat": -72.26064228078917, "lon": 76.67509403699584, "alt_km": 632.2003509773576, "timestamp": "2025-12-04T09:47:37.180526+00:00", "meta": {"OBJECT_NAME": "PLEIADES NEO 3", "OBJECT_ID": "2021-034A", "EPOCH": "2025-12-04T05:15:54.745632", "MEAN_MOTION": 14.81672062, "ECCENTRICITY": 0.0001244, "INCLINATION": 97.8948, "RA_OF_ASC_NODE": 50.782, "ARG_OF_PERICENTER": 92.3573, "MEAN_ANOMALY": 267.7782, "EPHEMERIS_TYPE": 0, "CLASSIFICATION_TYPE": "U", "NORAD_CAT_ID": 48268, "ELEMENT_SET_NO": 999, "REV_AT_EPOCH": 24878, "BSTAR": -1.8637e-06, "MEAN_MOTION_DOT": -6.7e-07, "MEAN_MOTION_DDOT": 0}, "tle": {"line1": "1 48268U 21034A   25338.21938363 -.00000067  00000+0 -18637-5 0  9998", "line2": "2 48268  97.8948  50.7820 0001244  92.3573 267.7782 14.81672062248782"}}, "geometry": {"type": "Point", "coordinates": [76.67509403699584, -72.26064228078917]}}, {"type": "Feature", "properties": {"norad_id": 49070, "name": "PLEIADES NEO 4", "group": "resource", "lat": 72.14107014642381, "lon": -103.52534495713832, "alt_km": 616.2033206647639, "timestamp": "2025-12-04T09:47:37.180536+00:00", "meta": {"OBJECT_NAME": "PLEIADES NEO 4", "OBJECT_ID": "2021-073E", "EPOCH": "2025-12-03T21:58:17.128128", "MEAN_MOTION": 14.81671959, "ECCENTRICITY": 0.00013149, "INCLINATION": 97.8949, "RA_OF_ASC_NODE": 50.4786, "ARG_OF_PERICENTER": 97.6472, "MEAN_ANOMALY": 262.489, "EPHEMERIS_TYPE": 0, "CLASSIFICATION_TYPE": "U", "NORAD_CAT_ID": 49070, "ELEMENT_SET_NO": 999, "REV_AT_EPOCH": 23245, "BSTAR": 2.756036e-06, "MEAN_MOTION_DOT": -3e-07, "MEAN_MOTION_DDOT": 0}, "tle": {"line1": "1 49070U 21073E   25337.91547602 -.00000030  00000+0  27560-5 0  9995", "line2": "2 49070  97.8949  50.4786 0001314  97.6472 262.4890 14.81671959232450"}}, "geometry": {"type": "Point", "coordinates": [-103.52534495713832, 72.14107014642381]}}, {"type": "Feature", "properties": {"norad_id": 49260, "name": "LANDSAT 9", "group": "resource", "lat": 41.35898283180379, "lon": -126.05834931313991, "alt_km": 698.6700526840295, "timestamp": "2025-12-04T09:47:37.180547+00:00", "meta": {"OBJECT_NAME": "LANDSAT 9", "OBJECT_ID": "2021-088A", "EPOCH": "2025-12-03T18:19:47.348544", "MEAN_MOTION": 14.57115156, "ECCENTRICITY": 0.00010677, "INCLINATION": 98.2103, "RA_OF_ASC_NODE": 46.0043, "ARG_OF_PERICENTER": 92.7732, "MEAN_ANOMALY": 267.3589, "EPHEMERIS_TYPE": 0, "CLASSIFICATION_TYPE": "U", "NORAD_CAT_ID": 49260, "ELEMENT_SET_NO": 999, "REV_AT_EPOCH": 22254, "BSTAR": 0.0001715529, "MEAN_MOTION_DOT": 7.28e-06, "MEAN_MOTION_DDOT": 0}, "tle": {"line1": "1 49260U 21088A   25337.76374246  .00000728  00000+0  17155-3 0  9997", "line2": "2 49260  98.2103  46.0043 0001067  92.7732 267.3589 14.57115156222548"}}, "geometry": {"type": "Point", "coordinates": [-126.05834931313991, 41.35898283180379]}}]}